#aV2014  7  6  0  0  0.00000000     288 DD+AD WGS84 FIT  NGA
## 1800      0.00000000   300.00000000 56844 0.0000000000000
+   32     1  2  3  4  5  6  7  8  9 10 11 12 13 14 15 16 17
+         18 19 20 21 22 23 24 25 26 27 28 29 30 31 32  0  0
+          0  0  0  0  0  0  0  0  0  0  0  0  0  0  0  0  0
+          0  0  0  0  0  0  0  0  0  0  0  0  0  0  0  0  0
+          0  0  0  0  0  0  0  0  0  0  0  0  0  0  0  0  0
++         2  2  2  2  2  2  2  2  2  2  2  2  2  2  2  2  2
++         2  2  2  2  2  2  2  2  2  2  2  2  2  2  2  0  0
++         0  0  0  0  0  0  0  0  0  0  0  0  0  0  0  0  0
++         0  0  0  0  0  0  0  0  0  0  0  0  0  0  0  0  0
++         0  0  0  0  0  0  0  0  0  0  0  0  0  0  0  0  0
%c cc cc ccc ccc cccc cccc cccc cccc ccccc ccccc ccccc ccccc
%c cc cc ccc ccc cccc cccc cccc cccc ccccc ccccc ccccc ccccc
%f  0.0000000  0.000000000  0.00000000000  0.000000000000000
%f  0.0000000  0.000000000  0.00000000000  0.000000000000000
%i    0    0    0    0      0      0      0      0         0
%i    0    0    0    0      0      0      0      0         0
/*      NGA, ST. LOUIS,MO.                                  
/*   EPHEMERIS COMPUTED FROM  1 DAYS OF DATA                
/*   EPOCHA SMOOTHER                                       
/* CCCCCCCCCCCCCCCCCCCCCCCCCCCCCCCCCCCCCCCCCCCCCCCCCCCCCCCCC
*  2014  7  6 14 10  0.00000000
P  1 -16650.400437 -13253.145269 -16018.677741     17.030847                    
V  1  20290.902683    596.700914 -21484.771200      0.008595                    
P  2  -8450.140907  14505.628115  20784.363261    505.193874                    
V  2 -25701.036599  -3408.285087  -8676.359983      0.021639                    
P  3   2805.877739 -23838.858440 -11773.161976    387.034257                    
V  3   9181.446699 -11218.837635  26294.154989      0.048473                    
P  4 -25153.812615   3235.289942   7958.582369      7.371627                    
V  4 -10111.322924  -4215.624612 -28864.436709      0.000453                    
P  5   -607.000902  22761.062579  13499.920537   -360.254670                    
V  5  -9409.026401 -14760.423475  24565.201064      0.030201                    
P  6 -20319.717065   8267.511385  14954.319766      2.260533                    
V  6 -18670.834792  -4132.898040 -23080.453646     -0.025528                    
P  7 -25550.477748  -6590.502504   4456.391570    365.651529                    
V  7   5734.716506  -1304.395198  31141.558852      0.042472                    
P  8 -26347.607111  -4321.847794  -3091.447365     14.579562                    
V  8  -3659.749124  -2080.239092  31803.954349      0.002758                    
P  9 -24968.570917   3312.399576  -9293.155460    126.755639                    
V  9 -10690.088766  -2942.584288  29149.024555      0.603231                    
P 10 -12674.381217   9325.911933  21013.622555   -132.518916                    
V 10 -11342.043601 -25178.537476   4684.699601     -0.014775                    
P 11  -9582.156563 -14816.989260 -20386.392271   -503.092230                    
V 11  24336.694319  -6165.225473  -6930.670033     -0.030571                    
P 12  11010.067286  24184.301438   2317.218076    216.269694                    
V 12   -565.655502   3445.617555 -32017.473897      0.025188                    
P 13 -14584.983663  -5476.058022  21408.230824    -17.777298                    
V 13  18240.781850 -20459.825584   6984.086665     -0.038967                    
P 14  20607.927368 -11796.459449 -11514.379857    156.977729                    
V 14  -8049.507776  12879.906386 -27222.017434     -0.035533                    
P 15   1521.931065  20147.657381 -17145.865639   -189.419888                    
V 15 -14221.674042  16752.966197  18776.576322     -0.022023                    
P 16   1412.437823 -22467.075837  13742.798112   -209.134281                    
V 16   7741.287597  15950.416673  25524.779313      0.021733                    
P 17 -20187.628227  12446.001939 -11461.476306   -106.808961                    
V 17   7579.221663 -13191.978519 -27284.579480     -0.030013                    
P 18  18043.677655   9454.498586 -16748.130479    329.878271                    
V 18   6927.708620  21158.207841  18564.424175      0.023124                    
P 19   3173.001523 -20531.096435 -16429.537236   -466.685588                    
V 19  15326.280330 -14129.210715  21249.128439     -0.020930                    
P 20 -14842.737355 -21570.141020   4487.344547    207.675976                    
V 20    652.866340  -7012.950031 -30229.378618      0.041197                    
P 21  26542.418750   3686.482348   1188.227201   -371.093557                    
V 21  -1082.547256   3212.284027  30788.160365     -0.021604                    
P 22  15020.027369  -5370.238239 -21025.074550    247.968478                    
V 22  11022.124042  25034.333971   1300.658393      0.029109                    
P 23  -7695.579294 -14527.846797  20895.106730    -34.403365                    
V 23  16696.324730 -20462.667574  -8546.249425     -0.030167                    
P 24  12499.036318  14418.457304 -18537.402882    -31.350828                    
V 24 -23500.063637   -912.322604 -16480.383585     -0.006572                    
P 25  16617.645879  16275.109819  12866.667984     24.872716                    
V 25   4907.467737  15739.180619 -25958.863270     -0.001226                    
P 26 -10446.085729  22172.879284 -10510.077906     23.403081                    
V 26  -9957.777327   7798.478019  28389.801944     -0.124391                    
P 27  11478.871742 -23053.449625  -6370.831939     -4.362653                    
V 27   6927.470480  -4942.492219  30480.290332      0.030284                    
P 28 -15050.195643   -254.484074 -21298.696414    367.602778                    
V 28  -9217.337740 -26862.912491   6523.504820      0.028875                    
P 29  14616.787471   5450.395017  21523.149032    544.758256                    
V 29 -16931.988971  21329.892634   6151.914480      0.027191                    
P 30 -25869.177459   -653.677356  -6088.473255    -27.954265                    
V 30  -7053.735192  -4151.329150  30416.764260     -0.065422                    
P 31  19433.250163  -8350.279798  16402.907218    333.662972                    
V 31  19991.809912   4192.299659 -21451.134740     -0.001871                    
P 32  -4313.354521 -25844.692989  -5809.348035   -391.263562                    
V 32   4890.292963   6099.931134 -29959.687499      0.083791                    
EOF
